{
  "type": "FeatureCollection",
  "features": [
    {
      "type": "Feature",
      "properties": {
        "norad_id": 41581,
        "name": "INTELSAT 31 (IS-31)",
        "group": "intelsat",
        "lat": -0.004270978592249881,
        "lon": -68.583129905146,
        "alt_km": 35782.61486806987,
        "timestamp": "2025-12-07T20:38:13.745381+00:00",
        "meta_object_name": "INTELSAT 31 (IS-31)",
        "meta_object_id": "2016-035A",
        "meta_epoch": "2025-12-07T04:37:21.756288",
        "meta_mean_motion": 1.00278147,
        "meta_eccentricity": 0.00022938,
        "meta_inclination": 0.0213,
        "meta_ra_of_asc_node": 265.9898,
        "meta_arg_of_pericenter": 305.3118,
        "meta_mean_anomaly": 199.2065,
        "meta_ephemeris_type": 0,
        "meta_classification_type": "U",
        "meta_norad_cat_id": 41581,
        "meta_element_set_no": 999,
        "meta_rev_at_epoch": 3475,
        "meta_bstar": 0,
        "meta_mean_motion_dot": -1.47e-06,
        "meta_mean_motion_ddot": 0,
        "tle_line1": "1 41581U 16035A   25341.19261292 -.00000147  00000+0  00000+0 0  9992",
        "tle_line2": "2 41581   0.0213 265.9898 0002293 305.3118 199.2065  1.00278147 34752"
      },
      "geometry": {
        "type": "Point",
        "coordinates": [
          -68.583129905146,
          -0.004270978592249881
        ]
      }
    },
    {
      "type": "Feature",
      "properties": {
        "norad_id": 41747,
        "name": "INTELSAT 36 (IS-36)",
        "group": "intelsat",
        "lat": 0.033057798517893255,
        "lon": 94.94006133685372,
        "alt_km": 35791.37325876832,
        "timestamp": "2025-12-07T20:38:13.745392+00:00",
        "meta_object_name": "INTELSAT 36 (IS-36)",
        "meta_object_id": "2016-053A",
        "meta_epoch": "2025-12-07T02:03:38.498400",
        "meta_mean_motion": 1.00271325,
        "meta_eccentricity": 0.00015323,
        "meta_inclination": 0.0116,
        "meta_ra_of_asc_node": 351.1153,
        "meta_arg_of_pericenter": 320.467,
        "meta_mean_anomaly": 223.9453,
        "meta_ephemeris_type": 0,
        "meta_classification_type": "U",
        "meta_norad_cat_id": 41747,
        "meta_element_set_no": 999,
        "meta_rev_at_epoch": 3402,
        "meta_bstar": 0,
        "meta_mean_motion_dot": -1.9e-07,
        "meta_mean_motion_ddot": 0,
        "tle_line1": "1 41747U 16053A   25341.08586225 -.00000019  00000+0  00000+0 0  9998",
        "tle_line2": "2 41747   0.0116 351.1153 0001532 320.4670 223.9453  1.00271325 34023"
      },
      "geometry": {
        "type": "Point",
        "coordinates": [
          94.94006133685372,
          0.033057798517893255
        ]
      }
    },
    {
      "type": "Feature",
      "properties": {
        "norad_id": 41945,
        "name": "INTELSAT 32E (IS-32E)",
        "group": "intelsat",
        "lat": -0.02364412699738844,
        "lon": -16.749973598457803,
        "alt_km": 35785.02520996777,
        "timestamp": "2025-12-07T20:38:13.745404+00:00",
        "meta_object_name": "INTELSAT 32E (IS-32E)",
        "meta_object_id": "2017-007B",
        "meta_epoch": "2025-12-07T06:34:55.496352",
        "meta_mean_motion": 1.00271091,
        "meta_eccentricity": 3.198e-05,
        "meta_inclination": 0.0298,
        "meta_ra_of_asc_node": 69.1436,
        "meta_arg_of_pericenter": 263.6407,
        "meta_mean_anomaly": 159.07,
        "meta_ephemeris_type": 0,
        "meta_classification_type": "U",
        "meta_norad_cat_id": 41945,
        "meta_element_set_no": 999,
        "meta_rev_at_epoch": 3230,
        "meta_bstar": 0,
        "meta_mean_motion_dot": -2.64e-06,
        "meta_mean_motion_ddot": 0,
        "tle_line1": "1 41945U 17007B   25341.27425343 -.00000264  00000+0  00000+0 0  9994",
        "tle_line2": "2 41945   0.0298  69.1436 0000319 263.6407 159.0700  1.00271091 32305"
      },
      "geometry": {
        "type": "Point",
        "coordinates": [
          -16.749973598457803,
          -0.02364412699738844
        ]
      }
    },
    {
      "type": "Feature",
      "properties": {
        "norad_id": 42818,
        "name": "INTELSAT 35E (IS-35E)",
        "group": "intelsat",
        "lat": -0.0028269547917348,
        "lon": -8.035372962316043,
        "alt_km": 35786.90858868733,
        "timestamp": "2025-12-07T20:38:13.745416+00:00",
        "meta_object_name": "INTELSAT 35E (IS-35E)",
        "meta_object_id": "2017-041A",
        "meta_epoch": "2025-12-07T04:54:35.106336",
        "meta_mean_motion": 1.00269935,
        "meta_eccentricity": 0.00024039,
        "meta_inclination": 0.0176,
        "meta_ra_of_asc_node": 6.0458,
        "meta_arg_of_pericenter": 254.5081,
        "meta_mean_anomaly": 214.8373,
        "meta_ephemeris_type": 0,
        "meta_classification_type": "U",
        "meta_norad_cat_id": 42818,
        "meta_element_set_no": 999,
        "meta_rev_at_epoch": 3089,
        "meta_bstar": 0,
        "meta_mean_motion_dot": -2.33e-06,
        "meta_mean_motion_ddot": 0,
        "tle_line1": "1 42818U 17041A   25341.20457299 -.00000233  00000+0  00000+0 0  9996",
        "tle_line2": "2 42818   0.0176   6.0458 0002403 254.5081 214.8373  1.00269935 30899"
      },
      "geometry": {
        "type": "Point",
        "coordinates": [
          -8.035372962316043,
          -0.0028269547917348
        ]
      }
    },
    {
      "type": "Feature",
      "properties": {
        "norad_id": 42950,
        "name": "INTELSAT 37E (IS-37E)",
        "group": "intelsat",
        "lat": 0.015887574834187793,
        "lon": 8.464319936183433,
        "alt_km": 35792.76338339734,
        "timestamp": "2025-12-07T20:38:13.745427+00:00",
        "meta_object_name": "INTELSAT 37E (IS-37E)",
        "meta_object_id": "2017-059A",
        "meta_epoch": "2025-12-07T06:42:02.314944",
        "meta_mean_motion": 1.00270717,
        "meta_eccentricity": 0.00034628,
        "meta_inclination": 0.0171,
        "meta_ra_of_asc_node": 348.7934,
        "meta_arg_of_pericenter": 263.8715,
        "meta_mean_anomaly": 266.1525,
        "meta_ephemeris_type": 0,
        "meta_classification_type": "U",
        "meta_norad_cat_id": 42950,
        "meta_element_set_no": 999,
        "meta_rev_at_epoch": 3014,
        "meta_bstar": 0,
        "meta_mean_motion_dot": -1.36e-06,
        "meta_mean_motion_ddot": 0,
        "tle_line1": "1 42950U 17059A   25341.27919346 -.00000136  00000+0  00000+0 0  9997",
        "tle_line2": "2 42950   0.0171 348.7934 0003462 263.8715 266.1525  1.00270717 30146"
      },
      "geometry": {
        "type": "Point",
        "coordinates": [
          8.464319936183433,
          0.015887574834187793
        ]
      }
    },
    {
      "type": "Feature",
      "properties": {
        "norad_id": 43632,
        "name": "AZERSPACE 2 (IS-38)",
        "group": "intelsat",
        "lat": 0.03798597702962184,
        "lon": 71.57004428999475,
        "alt_km": 35791.90401398865,
        "timestamp": "2025-12-07T20:38:13.745439+00:00",
        "meta_object_name": "AZERSPACE 2 (IS-38)",
        "meta_object_id": "2018-074A",
        "meta_epoch": "2025-12-07T05:22:21.770112",
        "meta_mean_motion": 1.00277128,
        "meta_eccentricity": 0.00018137,
        "meta_inclination": 0.0163,
        "meta_ra_of_asc_node": 325.3926,
        "meta_arg_of_pericenter": 301.6911,
        "meta_mean_anomaly": 294.8814,
        "meta_ephemeris_type": 0,
        "meta_classification_type": "U",
        "meta_norad_cat_id": 43632,
        "meta_element_set_no": 999,
        "meta_rev_at_epoch": 2652,
        "meta_bstar": 0,
        "meta_mean_motion_dot": 1.41e-06,
        "meta_mean_motion_ddot": 0,
        "tle_line1": "1 43632U 18074A   25341.22386308  .00000141  00000+0  00000+0 0  9999",
        "tle_line2": "2 43632   0.0163 325.3926 0001813 301.6911 294.8814  1.00277128 26523"
      },
      "geometry": {
        "type": "Point",
        "coordinates": [
          71.57004428999475,
          0.03798597702962184
        ]
      }
    },
    {
      "type": "Feature",
      "properties": {
        "norad_id": 43633,
        "name": "HORIZONS-3E",
        "group": "intelsat",
        "lat": -0.020001193831431258,
        "lon": -164.57236699510483,
        "alt_km": 35787.191144565884,
        "timestamp": "2025-12-07T20:38:13.745451+00:00",
        "meta_object_name": "HORIZONS-3E",
        "meta_object_id": "2018-074B",
        "meta_epoch": "2025-12-07T05:52:44.536224",
        "meta_mean_motion": 1.0026846,
        "meta_eccentricity": 0.00012673,
        "meta_inclination": 0.0421,
        "meta_ra_of_asc_node": 183.6545,
        "meta_arg_of_pericenter": 104.0548,
        "meta_mean_anomaly": 45.7689,
        "meta_ephemeris_type": 0,
        "meta_classification_type": "U",
        "meta_norad_cat_id": 43633,
        "meta_element_set_no": 999,
        "meta_rev_at_epoch": 2641,
        "meta_bstar": 0,
        "meta_mean_motion_dot": -2.6e-07,
        "meta_mean_motion_ddot": 0,
        "tle_line1": "1 43633U 18074B   25341.24495991 -.00000026  00000+0  00000+0 0  9994",
        "tle_line2": "2 43633   0.0421 183.6545 0001267 104.0548  45.7689  1.00268460 26417"
      },
      "geometry": {
        "type": "Point",
        "coordinates": [
          -164.57236699510483,
          -0.020001193831431258
        ]
      }
    }
  ]
}